QB50P1                  
1 40025U 14033R   26169.60000341  .00006188  00000+0  30544-3 0  9991
2 40025  98.0962 180.8450 0007983 209.9659 150.1117 15.18277268653243
DTUSAT-2                
1 40030U 14033W   26169.88907655  .00005314  00000+0  28820-3 0  9995
2 40030  98.0864 167.7240 0006804 218.7107 141.3636 15.15033669652944
QB50P2                  
1 40032U 14033Y   26169.75111845  .00005755  00000+0  31045-3 0  9993
2 40032  98.0752 166.7286 0008168 158.5768 201.5806 15.15174163652909
PERSEUS-M1              
1 40039U 14033AF  26169.77562578  .00001322  00000+0  12433-3 0  9991
2 40039  97.9640 113.9333 0010198 295.2954  64.7209 14.95634843650872
POLYITAN-1              
1 40042U 14033AJ  26169.61855686  .00015200  00000+0  47423-3 0  9990
2 40042  98.0940 196.0151 0008724 137.4054 222.7864 15.33297714653816
TIGRISAT                
1 40043U 14033AK  26169.39596375  .00001621  00000+0  19130-3 0  9999
2 40043  97.7831 319.3796 0050562  71.3546 289.3150 14.85166384645807
CANX-4                  
1 40055U 14034C   26169.63800544  .00000711  00000+0  98465-4 0  9994
2 40055  98.3120  45.0044 0013060  12.4887 347.6645 14.81266926644741
CANX-5                  
1 40056U 14034D   26169.63642176  .00000722  00000+0  99840-4 0  9990
2 40056  98.3121  45.0464 0013066  12.7135 347.4404 14.81284229635550
GONETS-M 10             
1 40063U 14036C   26169.84130564  .00000082  00000+0  51561-3 0  9992
2 40063  82.5119 306.6463 0022726 137.1460 223.1396 12.42945859542455
METEOR-M 2              
1 40069U 14037A   26169.90535339  .00000143  00000+0  84687-4 0  9999
2 40069  98.5117 145.5831 0006668  40.2448 319.9222 14.21462242619560
DX1                     
1 40071U 14037C   26169.83885772  .00001103  00000+0  12090-3 0  9998
2 40071  98.3870 131.6406 0005732 268.7870  91.2689 14.89987642646352
UKUBE-1                 
1 40074U 14037F   26169.75489937  .00007415  00000+0  41753-3 0  9995
2 40074  98.4237 173.1912 0002745 131.1505 228.9960 15.13575223648792
GAOFEN-2                
1 40118U 14049A   26169.86554120  .00000360  00000+0  53543-4 0  9999
2 40118  98.0106 234.0712 0006261 220.4033 139.6715 14.80898942639483
BRITE-PL2 (HEWELIUSZ)   
1 40119U 14049B   26169.77913406  .00001598  00000+0  15283-3 0  9998
2 40119  97.9100 281.7913 0015333 103.7702 256.5226 14.94598146641683
CBERS 4                 
1 40336U 14079A   26169.84946286 -.00000057  00000+0 -52796-5 0  9995
2 40336  98.3528 226.6290 0001784  62.5555 297.5812 14.35508881604195
SMAP                    
1 40376U 15003A   26169.78930051  .00000315  00000+0  70082-4 0  9995
2 40376  98.1276 176.8612 0001343  96.3627 263.7728 14.63367725607855
GONETS-M 11             
1 40552U 15020A   26169.85981008  .00000026  00000+0  11414-3 0  9998
2 40552  82.4863  29.9493 0016554   2.2555 357.8596 12.42877403508942
GONETS-M 12             
1 40553U 15020B   26169.91377826  .00000078  00000+0  48910-3 0  9991
2 40553  82.4897  31.0401 0015245 347.2676  12.8017 12.42891536508944
GONETS-M 13             
1 40554U 15020C   26169.88728954  .00000064  00000+0  39413-3 0  9993
2 40554  82.4859  29.6709 0013584 332.5713  27.4649 12.42870750508915
DMC3-FM1                
1 40715U 15032A   26169.88906390 -.00000058  00000+0 -72118-6 0  9994
2 40715  97.6454  34.9971 0006918  55.0756 305.1108 14.85738617590168
DMC3-FM2                
1 40716U 15032B   26169.91111095  .00000424  00000+0  54707-4 0  9996
2 40716  97.6508  36.5930 0007483  59.3893 300.8059 14.85744914590163
DMC3-FM3                
1 40717U 15032C   26169.86709968  .00000905  00000+0  11010-3 0  9996
2 40717  97.6561  38.3052 0006766  60.3115 299.8774 14.85737167590163
CARBONITE 1 (CBNT-1)    
1 40718U 15032D   26169.80120325  .00001887  00000+0  23478-3 0  9996
2 40718  97.6504 347.7996 0013081 292.4779  67.5050 14.83593654589587
LILACSAT-2              
1 40908U 15049K   26169.88469556  .00013972  00000+0  23796-3 0  9996
2 40908  97.4640 206.7910 0005622 236.9424 123.1288 15.51490742596017
COSMOS 2507 (RODNIK-S *)
1 40920U 15050A   26169.84211691  .00000096  00000+0  62329-3 0  9991
2 40920  82.4929  78.6403 0010145 353.3904   6.7040 12.42926865487064
COSMOS 2508 (RODNIK-S *)
1 40921U 15050B   26169.79715472  .00000114  00000+0  75131-3 0  9998
2 40921  82.4882  77.1729 0015124  23.6148 336.5623 12.42914463487047
COSMOS 2509 (RODNIK-S *)
1 40922U 15050C   26169.81753337  .00000046  00000+0  26107-3 0  9997
2 40922  82.4890  77.2627 0015668  39.7037 320.5187 12.42883675487085
